{"type": "FeatureCollection", "features": [ {"type": "Feature", "properties": {"norad_id": 30597, "name": "FENGYUN 1C DEB", "group": "fengyun-1c-debris", "lat": -56.27097226232563, "lon": -47.6939952201692, "alt_km": 625.8924252978431, "timestamp": "2025-12-26T08:37:54.857782+00:00", "meta": {"OBJECT_NAME": "FENGYUN 1C DEB", "OBJECT_ID": "1999-025AMC", "EPOCH": "2025-12-24T07:02:47.375232", "MEAN_MOTION": 14.93450835, "ECCENTRICITY": 0.00466134, "INCLINATION": 98.9402, "RA_OF_ASC_NODE": 296.3208, "ARG_OF_PERICENTER": 126.7159, "MEAN_ANOMALY": 233.8353, "EPHEMERIS_TYPE": 0, "CLASSIFICATION_TYPE": "U", "NORAD_CAT_ID": 30597, "ELEMENT_SET_NO": 999, "REV_AT_EPOCH": 98709, "BSTAR": 0.0051085907, "MEAN_MOTION_DOT": 0.0005519, "MEAN_MOTION_DDOT": 0}, "tle": {"line1": "1 30597U 99025AMC 25358.29360388  .00055190  00000+0  51086-2 0  9992", "line2": "2 30597  98.9402 296.3208 0046613 126.7159 233.8353 14.93450835987091"}}, "geometry": {"type": "Point", "coordinates": [-47.6939952201692, -56.27097226232563]}}, {"type": "Feature", "properties": {"norad_id": 30599, "name": "FENGYUN 1C DEB", "group": "fengyun-1c-debris", "lat": 41.15486425299877, "lon": 4.017892511905152, "alt_km": 841.0885536978349, "timestamp": "2025-12-26T08:37:54.857792+00:00", "meta": {"OBJECT_NAME": "FENGYUN 1C DEB", "OBJECT_ID": "1999-025AME", "EPOCH": "2025-12-25T12:08:34.103328", "MEAN_MOTION": 14.19750918, "ECCENTRICITY": 0.0301667, "INCLINATION": 98.6025, "RA_OF_ASC_NODE": 10.79, "ARG_OF_PERICENTER": 307.7466, "MEAN_ANOMALY": 49.6723, "EPHEMERIS_TYPE": 0, "CLASSIFICATION_TYPE": "U", "NORAD_CAT_ID": 30599, "ELEMENT_SET_NO": 999, "REV_AT_EPOCH": 97348, "BSTAR": 0.00071007, "MEAN_MOTION_DOT": 2.321e-05, "MEAN_MOTION_DDOT": 0}, "tle": {"line1": "1 30599U 99025AME 25359.50595027  .00002321  00000+0  71007-3 0  9993", "line2": "2 30599  98.6025  10.7900 0301667 307.7466  49.6723 14.19750918973488"}}, "geometry": {"type": "Point", "coordinates": [4.017892511905152, 41.15486425299877]}}, {"type": "Feature", "properties": {"norad_id": 30600, "name": "FENGYUN 1C DEB", "group": "fengyun-1c-debris", "lat": -81.42946308322006, "lon": 22.38175512584696, "alt_km": 762.9726055146148, "timestamp": "2025-12-26T08:37:54.857802+00:00", "meta": {"OBJECT_NAME": "FENGYUN 1C DEB", "OBJECT_ID": "1999-025AMF", "EPOCH": "2025-12-25T19:24:36.776736", "MEAN_MOTION": 14.07679207, "ECCENTRICITY": 0.0326316, "INCLINATION": 98.3872, "RA_OF_ASC_NODE": 303.656, "ARG_OF_PERICENTER": 209.8405, "MEAN_ANOMALY": 148.3806, "EPHEMERIS_TYPE": 0, "CLASSIFICATION_TYPE": "U", "NORAD_CAT_ID": 30600, "ELEMENT_SET_NO": 999, "REV_AT_EPOCH": 94616, "BSTAR": 0.0020960292, "MEAN_MOTION_DOT": 5.732e-05, "MEAN_MOTION_DDOT": 0}, "tle": {"line1": "1 30600U 99025AMF 25359.80875899  .00005732  00000+0  20960-2 0  9997", "line2": "2 30600  98.3872 303.6560 0326316 209.8405 148.3806 14.07679207946169"}}, "geometry": {"type": "Point", "coordinates": [22.38175512584696, -81.42946308322006]}}, {"type": "Feature", "properties": {"norad_id": 30602, "name": "FENGYUN 1C DEB", "group": "fengyun-1c-debris", "lat": 74.26670404329671, "lon": 130.60059428664732, "alt_km": 571.3354083779968, "timestamp": "2025-12-26T08:37:54.857812+00:00", "meta": {"OBJECT_NAME": "FENGYUN 1C DEB", "OBJECT_ID": "1999-025AMH", "EPOCH": "2025-12-25T17:56:34.870848", "MEAN_MOTION": 14.93131495, "ECCENTRICITY": 0.00142403, "INCLINATION": 99.0318, "RA_OF_ASC_NODE": 275.5227, "ARG_OF_PERICENTER": 86.7256, "MEAN_ANOMALY": 328.1239, "EPHEMERIS_TYPE": 0, "CLASSIFICATION_TYPE": "U", "NORAD_CAT_ID": 30602, "ELEMENT_SET_NO": 999, "REV_AT_EPOCH": 97999, "BSTAR": 0.0074621756, "MEAN_MOTION_DOT": 0.0007876, "MEAN_MOTION_DDOT": 0}, "tle": {"line1": "1 30602U 99025AMH 25359.74762582  .00078760  00000+0  74622-2 0  9991", "line2": "2 30602  99.0318 275.5227 0014240  86.7256 328.1239 14.93131495979999"}}, "geometry": {"type": "Point", "coordinates": [130.60059428664732, 74.26670404329671]}}, {"type": "Feature", "properties": {"norad_id": 30603, "name": "FENGYUN 1C DEB", "group": "fengyun-1c-debris", "lat": 28.696611917326504, "lon": -153.497536891309, "alt_km": 819.1513840341722, "timestamp": "2025-12-26T08:37:54.857822+00:00", "meta": {"OBJECT_NAME": "FENGYUN 1C DEB", "OBJECT_ID": "1999-025AMJ", "EPOCH": "2025-12-25T15:09:58.910112", "MEAN_MOTION": 13.84161498, "ECCENTRICITY": 0.0183528, "INCLINATION": 98.4086, "RA_OF_ASC_NODE": 21.2063, "ARG_OF_PERICENTER": 170.2079, "MEAN_ANOMALY": 316.9963, "EPHEMERIS_TYPE": 0, "CLASSIFICATION_TYPE": "U", "NORAD_CAT_ID": 30603, "ELEMENT_SET_NO": 999, "REV_AT_EPOCH": 95054, "BSTAR": 0.0012471, "MEAN_MOTION_DOT": 1.547e-05, "MEAN_MOTION_DDOT": 0}, "tle": {"line1": "1 30603U 99025AMJ 25359.63193183  .00001547  00000+0  12471-2 0  9998", "line2": "2 30603  98.4086  21.2063 0183528 170.2079 316.9963 13.84161498950541"}}, "geometry": {"type": "Point", "coordinates": [-153.497536891309, 28.696611917326504]}}, {"type": "Feature", "properties": {"norad_id": 30604, "name": "FENGYUN 1C DEB", "group": "fengyun-1c-debris", "lat": -49.73853774406297, "lon": 44.64795395574354, "alt_km": 676.2131473971058, "timestamp": "2025-12-26T08:37:54.857833+00:00", "meta": {"OBJECT_NAME": "FENGYUN 1C DEB", "OBJECT_ID": "1999-025AMK", "EPOCH": "2025-12-25T00:55:32.475648", "MEAN_MOTION": 14.2363064, "ECCENTRICITY": 0.02089738, "INCLINATION": 98.4011, "RA_OF_ASC_NODE": 33.3358, "ARG_OF_PERICENTER": 330.8132, "MEAN_ANOMALY": 52.6621, "EPHEMERIS_TYPE": 0, "CLASSIFICATION_TYPE": "U", "NORAD_CAT_ID": 30604, "ELEMENT_SET_NO": 999, "REV_AT_EPOCH": 98014, "BSTAR": 0.00029694807, "MEAN_MOTION_DOT": 8.01e-06, "MEAN_MOTION_DDOT": 0}, "tle": {"line1": "1 30604U 99025AMK 25359.03857032  .00000801  00000+0  29695-3 0  9992", "line2": "2 30604  98.4011  33.3358 0208973 330.8132  52.6621 14.23630640980145"}}, "geometry": {"type": "Point", "coordinates": [44.64795395574354, -49.73853774406297]}}, {"type": "Feature", "properties": {"norad_id": 30606, "name": "FENGYUN 1C DEB", "group": "fengyun-1c-debris", "lat": 9.119866234270937, "lon": -168.53429542880244, "alt_km": 661.8601079870796, "timestamp": "2025-12-26T08:37:54.857843+00:00", "meta": {"OBJECT_NAME": "FENGYUN 1C DEB", "OBJECT_ID": "1999-025AMM", "EPOCH": "2025-12-25T23:46:25.184928", "MEAN_MOTION": 14.57722983, "ECCENTRICITY": 0.0214343, "INCLINATION": 98.0958, "RA_OF_ASC_NODE": 9.797, "ARG_OF_PERICENTER": 96.0691, "MEAN_ANOMALY": 296.4501, "EPHEMERIS_TYPE": 0, "CLASSIFICATION_TYPE": "U", "NORAD_CAT_ID": 30606, "ELEMENT_SET_NO": 999, "REV_AT_EPOCH": 99435, "BSTAR": 0.00058728544, "MEAN_MOTION_DOT": 3.63e-05, "MEAN_MOTION_DDOT": 0}, "tle": {"line1": "1 30606U 99025AMM 25359.99056927  .00003630  00000+0  58729-3 0  9996", "line2": "2 30606  98.0958   9.7970 0214343  96.0691 296.4501 14.57722983994351"}}, "geometry": {"type": "Point", "coordinates": [-168.53429542880244, 9.119866234270937]}}, {"type": "Feature", "properties": {"norad_id": 30608, "name": "FENGYUN 1C DEB", "group": "fengyun-1c-debris", "lat": -81.15678877226975, "lon": 162.87128557923893, "alt_km": 811.043253537011, "timestamp": "2025-12-26T08:37:54.857853+00:00", "meta": {"OBJECT_NAME": "FENGYUN 1C DEB", "OBJECT_ID": "1999-025AMP", "EPOCH": "2025-12-25T18:27:57.132000", "MEAN_MOTION": 14.28547373, "ECCENTRICITY": 0.00163665, "INCLINATION": 98.7087, "RA_OF_ASC_NODE": 62.4069, "ARG_OF_PERICENTER": 142.7271, "MEAN_ANOMALY": 331.8024, "EPHEMERIS_TYPE": 0, "CLASSIFICATION_TYPE": "U", "NORAD_CAT_ID": 30608, "ELEMENT_SET_NO": 999, "REV_AT_EPOCH": 97625, "BSTAR": 0.0011791323, "MEAN_MOTION_DOT": 2.917e-05, "MEAN_MOTION_DDOT": 0}, "tle": {"line1": "1 30608U 99025AMP 25359.76941125  .00002917  00000+0  11791-2 0  9990", "line2": "2 30608  98.7087  62.4069 0016366 142.7271 331.8024 14.28547373976255"}}, "geometry": {"type": "Point", "coordinates": [162.87128557923893, -81.15678877226975]}}, {"type": "Feature", "properties": {"norad_id": 30609, "name": "FENGYUN 1C DEB", "group": "fengyun-1c-debris", "lat": 33.15352005484982, "lon": -89.29099053171224, "alt_km": 770.5185066431904, "timestamp": "2025-12-26T08:37:54.857863+00:00", "meta": {"OBJECT_NAME": "FENGYUN 1C DEB", "OBJECT_ID": "1999-025AMQ", "EPOCH": "2025-12-24T05:25:59.119680", "MEAN_MOTION": 14.11312216, "ECCENTRICITY": 0.01199952, "INCLINATION": 98.5695, "RA_OF_ASC_NODE": 274.3247, "ARG_OF_PERICENTER": 20.8022, "MEAN_ANOMALY": 339.7974, "EPHEMERIS_TYPE": 0, "CLASSIFICATION_TYPE": "U", "NORAD_CAT_ID": 30609, "ELEMENT_SET_NO": 999, "REV_AT_EPOCH": 95890, "BSTAR": 0.0026849985, "MEAN_MOTION_DOT": 5.153e-05, "MEAN_MOTION_DDOT": 0}, "tle": {"line1": "1 30609U 99025AMQ 25358.22637870  .00005153  00000+0  26850-2 0  9997", "line2": "2 30609  98.5695 274.3247 0119995  20.8022 339.7974 14.11312216958904"}}, "geometry": {"type": "Point", "coordinates": [-89.29099053171224, 33.15352005484982]}}, {"type": "Feature", "properties": {"norad_id": 30612, "name": "FENGYUN 1C DEB", "group": "fengyun-1c-debris", "lat": 39.80988585003082, "lon": -15.098552541470605, "alt_km": 467.8795355101429, "timestamp": "2025-12-26T08:37:54.857873+00:00", "meta": {"OBJECT_NAME": "FENGYUN 1C DEB", "OBJECT_ID": "1999-025AMT", "EPOCH": "2025-12-25T11:10:41.898144", "MEAN_MOTION": 15.32442726, "ECCENTRICITY": 0.0024848, "INCLINATION": 99.082, "RA_OF_ASC_NODE": 351.4678, "ARG_OF_PERICENTER": 303.1499, "MEAN_ANOMALY": 208.3193, "EPHEMERIS_TYPE": 0, "CLASSIFICATION_TYPE": "U", "NORAD_CAT_ID": 30612, "ELEMENT_SET_NO": 999, "REV_AT_EPOCH": 452, "BSTAR": 0.0037124, "MEAN_MOTION_DOT": 0.00119031, "MEAN_MOTION_DDOT": 0}, "tle": {"line1": "1 30612U 99025AMT 25359.46576271  .00119031  00000+0  37124-2 0  9992", "line2": "2 30612  99.0820 351.4678 0024848 303.1499 208.3193 15.32442726  4524"}}, "geometry": {"type": "Point", "coordinates": [-15.098552541470605, 39.80988585003082]}}]}